NORAD_CAT_ID,OBJECT_NAME,OBJECT_TYPE,EPOCH,MEAN_MOTION,ECCENTRICITY,INCLINATION,RA_OF_ASC_NODE,ARG_OF_PERICENTER,MEAN_ANOMALY,BSTAR,MEAN_MOTION_DOT,MEAN_MOTION_DDOT,TLE_LINE0,TLE_LINE1,TLE_LINE2,SEMIMAJOR_AXIS,PERIOD,APOGEE,PERIGEE,DECAYED
53402.0,STARLINK-4499,PAYLOAD,2024-07-07 19:00:46,15.08847965,0.0001192,53.2186,342.0614,94.8523,265.2606,9.2383e-05,1.183e-05,0.0,0 STARLINK-4499,1 53402U 22097Q   24189.79220244  .00001183  00000-0  92383-4 0  9990,2 53402  53.2186 342.0614 0001192  94.8523 265.2606 15.08847965105955,6917.856,95.437,540.546,538.896,0.0
53402.0,STARLINK-4499,PAYLOAD,2024-07-08 14:05:24,15.08834173,0.0001478,53.2213,338.4928,84.8593,275.2567,6.1643e-05,6.93e-06,0.0,0 STARLINK-4499,1 53402U 22097Q   24190.58709400  .00000693  00000-0  61643-4 0  9995,2 53402  53.2213 338.4928 0001478  84.8593 275.2567 15.08834173106568,6917.898,95.438,540.786,538.741,0.0
53402.0,STARLINK-4499,PAYLOAD,2024-07-08 18:51:33,15.08841303,0.0001135,53.2181,337.6009,84.8663,275.2459,9.3159e-05,1.195e-05,0.0,0 STARLINK-4499,1 53402U 22097Q   24190.78580825  .00001195  00000-0  93159-4 0  9990,2 53402  53.2181 337.6009 0001135  84.8663 275.2459 15.08841303106104,6917.876,95.437,540.527,538.956,0.0
53402.0,STARLINK-4499,PAYLOAD,2024-07-09 02:48:30,15.0883537,0.0001243,53.2184,336.1141,82.7542,277.3592,3.8596e-05,3.26e-06,0.0,0 STARLINK-4499,1 53402U 22097Q   24191.11701461  .00000326  00000-0  38596-4 0  9998,2 53402  53.2184 336.1141 0001243  82.7542 277.3592 15.08835370106154,6917.895,95.438,540.619,538.9,0.0
53402.0,STARLINK-4499,PAYLOAD,2024-07-09 13:56:11,15.08840185,0.0001411,53.2195,334.0323,85.0298,275.0855,1.8226e-05,2e-08,0.0,0 STARLINK-4499,1 53402U 22097Q   24191.58069318  .00000002  00000-0  18226-4 0  9996,2 53402  53.2195 334.0323 0001411  85.0298 275.0855 15.08840185106715,6917.88,95.438,540.721,538.769,0.0
53402.0,STARLINK-4499,PAYLOAD,2024-07-09 18:42:20,15.08846343,0.0001325,53.2193,333.1373,82.5894,277.5249,-2.5527e-06,-3.29e-06,0.0,0 STARLINK-4499,1 53402U 22097Q   24191.77940873 -.00000329  00000-0 -25527-5 0  9998,2 53402  53.2193 333.1373 0001325  82.5894 277.5249 15.08846343106251,6917.861,95.437,540.643,538.809,0.0
53402.0,STARLINK-4499,PAYLOAD,2024-07-10 09:00:49,15.0883851,9.78e-05,53.2175,330.4648,87.9826,272.1278,-2.353e-05,-6.62e-06,0.0,0 STARLINK-4499,1 53402U 22097Q   24192.37557491 -.00000662  00000-0 -23530-4 0  9996,2 53402  53.2175 330.4648 0000978  87.9826 272.1278 15.08838510106343,6917.885,95.438,540.427,539.073,0.0
53402.0,STARLINK-4499,PAYLOAD,2024-07-10 15:22:22,15.08838869,9.73e-05,53.2174,329.2754,87.3545,272.7559,-1.9252e-05,-5.94e-06,0.0,0 STARLINK-4499,1 53402U 22097Q   24192.64053469 -.00000594  00000-0 -19252-4 0  9992,2 53402  53.2174 329.2754 0000973  87.3545 272.7559 15.08838869106876,6917.884,95.438,540.422,539.076,0.0
53402.0,STARLINK-4499,PAYLOAD,2024-07-11 13:37:45,15.08842067,8.82e-05,53.2169,325.1123,78.7682,281.3409,0.0001306,1.792e-05,0.0,0 STARLINK-4499,1 53402U 22097Q   24193.56788718  .00001792  00000-0  13060-3 0  9995,2 53402  53.2169 325.1123 0000882  78.7682 281.3409 15.08842067107012,6917.874,95.437,540.349,539.129,0.0
53402.0,STARLINK-4499,PAYLOAD,2024-07-12 13:28:33,15.08838465,0.0001521,53.2179,320.6524,86.9449,273.1717,4.5717e-05,4.4e-06,0.0,0 STARLINK-4499,1 53402U 22097Q   24194.56149322  .00000440  00000-0  45717-4 0  9992,2 53402  53.2179 320.6524 0001521  86.9449 273.1717 15.08838465106670,6917.885,95.438,540.802,538.698,0.0
53402.0,STARLINK-4499,PAYLOAD,2024-07-12 15:03:55,15.08840665,0.0001519,53.2166,320.3535,89.3746,270.742,6.4181e-05,7.34e-06,0.0,0 STARLINK-4499,1 53402U 22097Q   24194.62773102  .00000734  00000-0  64181-4 0  9990,2 53402  53.2166 320.3535 0001519  89.3746 270.7420 15.08840665107174,6917.878,95.438,540.794,538.693,0.0
53402.0,STARLINK-4499,PAYLOAD,2024-07-13 14:54:42,15.08848152,0.0001201,53.2181,315.8914,95.9174,264.1955,1.1397e-06,-2.7e-06,0.0,0 STARLINK-4499,1 53402U 22097Q   24195.62132757 -.00000270  00000-0  11397-5 0  9994,2 53402  53.2181 315.8914 0001201  95.9174 264.1955 15.08848152107323,6917.855,95.437,540.551,538.89,0.0
53402.0,STARLINK-4499,PAYLOAD,2024-07-14 14:45:29,15.08843972,0.0001405,53.2187,311.4382,98.1685,261.9466,0.00015523,2.184e-05,0.0,0 STARLINK-4499,1 53402U 22097Q   24196.61492705  .00002184  00000-0  15523-3 0  9994,2 53402  53.2187 311.4382 0001405  98.1685 261.9466 15.08843972107471,6917.868,95.437,540.705,538.761,0.0
53402.0,STARLINK-4499,PAYLOAD,2024-07-15 00:17:48,15.08847591,0.0001208,53.2177,309.6484,92.1403,267.9727,8.6008e-05,1.081e-05,0.0,0 STARLINK-4499,1 53402U 22097Q   24197.01236449  .00001081  00000-0  86008-4 0  9992,2 53402  53.2177 309.6484 0001208  92.1403 267.9727 15.08847591107045,6917.857,95.437,540.558,538.887,0.0
53402.0,STARLINK-4499,PAYLOAD,2024-07-15 13:00:54,15.08839819,0.0001297,53.2176,307.2675,96.5913,263.5227,4.1927e-05,3.79e-06,0.0,0 STARLINK-4499,1 53402U 22097Q   24197.54229330  .00000379  00000-0  41927-4 0  9991,2 53402  53.2176 307.2675 0001297  96.5913 263.5227 15.08839819107122,6917.881,95.438,540.643,538.849,0.0
53402.0,STARLINK-4499,PAYLOAD,2024-07-15 14:36:17,15.08840199,0.0001237,53.217,306.9719,93.3354,266.7779,6.1706e-05,6.94e-06,0.0,0 STARLINK-4499,1 53402U 22097Q   24197.60853300  .00000694  00000-0  61706-4 0  9995,2 53402  53.2170 306.9719 0001237  93.3354 266.7779 15.08840199107624,6917.88,95.438,540.601,538.889,0.0
53402.0,STARLINK-4499,PAYLOAD,2024-07-16 00:08:36,15.08834291,0.0001593,53.2177,305.1857,84.8352,275.2822,-6.0324e-05,-1.248e-05,0.0,0 STARLINK-4499,1 53402U 22097Q   24198.00598046 -.00001248  00000-0 -60324-4 0  9996,2 53402  53.2177 305.1857 0001593  84.8352 275.2822 15.08834291107195,6917.898,95.438,540.865,538.661,0.0
53402.0,STARLINK-4499,PAYLOAD,2024-07-16 12:51:40,15.08848936,0.0001465,53.2177,302.8078,123.8826,236.2306,6.3638e-05,7.25e-06,0.0,0 STARLINK-4499,1 53402U 22097Q   24198.53588662  .00000725  00000-0  63638-4 0  9995,2 53402  53.2177 302.8078 0001465 123.8826 236.2306 15.08848936107276,6917.853,95.437,540.732,538.705,0.0
53402.0,STARLINK-4499,PAYLOAD,2024-07-16 14:27:03,15.0885591,0.0001061,53.2174,302.5078,96.9462,263.165,0.00012167,1.65e-05,0.0,0 STARLINK-4499,1 53402U 22097Q   24198.60212096  .00001650  00000-0  12167-3 0  9996,2 53402  53.2174 302.5078 0001061  96.9462 263.1650 15.08855910107774,6917.832,95.437,540.431,538.963,0.0
53402.0,STARLINK-4499,PAYLOAD,2024-07-17 12:42:29,15.08828711,0.0001192,53.2176,298.346,69.8711,290.2409,0.0001105,1.471e-05,0.0,0 STARLINK-4499,1 53402U 22097Q   24199.52950581  .00001471  00000-0  11050-3 0  9997,2 53402  53.2176 298.3460 0001192  69.8711 290.2409 15.08828711107428,6917.915,95.438,540.605,538.955,0.0
53402.0,STARLINK-4499,PAYLOAD,2024-07-17 14:17:52,15.0883586,0.0001327,53.2177,298.0488,78.5913,281.5228,3.7095e-05,3.02e-06,0.0,0 STARLINK-4499,1 53402U 22097Q   24199.59574351  .00000302  00000-0  37095-4 0  9991,2 53402  53.2177 298.0488 0001327  78.5913 281.5228 15.08835860107927,6917.893,95.438,540.676,538.84,0.0
53402.0,STARLINK-4499,PAYLOAD,2024-07-18 12:33:15,15.0885192,0.0001199,53.2159,293.8898,68.0193,292.0927,0.00016284,2.306e-05,0.0,0 STARLINK-4499,1 53402U 22097Q   24200.52309405  .00002306  00000-0  16284-3 0  9995,2 53402  53.2159 293.8898 0001199  68.0193 292.0927 15.08851920107575,6917.844,95.437,540.538,538.88,0.0
53402.0,STARLINK-4499,PAYLOAD,2024-07-19 12:24:02,15.08842233,0.0001384,53.2168,289.4263,85.2413,274.8737,0.00012214,1.657e-05,0.0,0 STARLINK-4499,1 53402U 22097Q   24201.51670030  .00001657  00000-0  12214-3 0  9997,2 53402  53.2168 289.4263 0001384  85.2413 274.8737 15.08842233107725,6917.874,95.437,540.696,538.781,0.0
53402.0,STARLINK-4499,PAYLOAD,2024-07-20 12:14:49,15.08853029,0.0001525,53.2187,284.9675,91.5522,268.5645,1.187e-05,-9.9e-07,0.0,0 STARLINK-4499,1 53402U 22097Q   24202.51029580 -.00000099  00000-0  11870-4 0  9994,2 53402  53.2187 284.9675 0001525  91.5522 268.5645 15.08853029108365,6917.841,95.437,540.761,538.651,0.0
53402.0,STARLINK-4499,PAYLOAD,2024-07-21 05:44:04,15.08837623,0.0001328,53.2172,281.6959,93.7433,266.3711,2.8028e-05,1.58e-06,0.0,0 STARLINK-4499,1 53402U 22097Q   24203.23894423  .00000158  00000-0  28028-4 0  9998,2 53402  53.2172 281.6959 0001328  93.7433 266.3711 15.08837623107983,6917.888,95.438,540.671,538.834,0.0
53402.0,STARLINK-4499,PAYLOAD,2024-07-21 12:05:37,15.08841759,0.0001412,53.2176,280.5071,97.6972,262.4181,6.5238e-05,7.51e-06,0.0,0 STARLINK-4499,1 53402U 22097Q   24203.50390059  .00000751  00000-0  65238-4 0  9997,2 53402  53.2176 280.5071 0001412  97.6972 262.4181 15.08841759108518,6917.875,95.437,540.717,538.763,0.0
53402.0,STARLINK-4499,PAYLOAD,2024-07-22 10:21:01,15.08835953,0.0001641,53.2171,276.3446,101.4648,258.6529,2.998e-05,1.89e-06,0.0,0 STARLINK-4499,1 53402U 22097Q   24204.43126814  .00000189  00000-0  29980-4 0  9995,2 53402  53.2171 276.3446 0001641 101.4648 258.6529 15.08835953108163,6917.893,95.438,540.893,538.623,0.0
53402.0,STARLINK-4499,PAYLOAD,2024-07-23 03:50:15,15.0884195,0.0001839,53.2178,273.0736,108.7139,251.4053,0.00011143,1.486e-05,0.0,0 STARLINK-4499,1 53402U 22097Q   24205.15990288  .00001486  00000-0  11143-3 0  9991,2 53402  53.2178 273.0736 0001839 108.7139 251.4053 15.08841950108279,6917.874,95.437,541.012,538.467,0.0
53402.0,STARLINK-4499,PAYLOAD,2024-07-23 10:11:48,15.08842438,0.00018,53.2175,271.8832,108.0873,252.0315,0.00010757,1.424e-05,0.0,0 STARLINK-4499,1 53402U 22097Q   24205.42486326  .00001424  00000-0  10757-3 0  9996,2 53402  53.2175 271.8832 0001800 108.0873 252.0315 15.08842438108804,6917.873,95.437,540.983,538.493,0.0
53402.0,STARLINK-4499,PAYLOAD,2024-07-24 10:02:36,15.08830096,0.0001596,53.2165,267.4237,106.5437,253.5731,-1.0205e-05,-4.5e-06,0.0,0 STARLINK-4499,1 53402U 22097Q   24206.41847870 -.00000450  00000-0 -10205-4 0  9990,2 53402  53.2165 267.4237 0001596 106.5437 253.5731 15.08830096108461,6917.911,95.438,540.88,538.672,0.0
